O3B FM5                 
1 39188U 13031A   23283.21458806 -.00000027  00000+0  00000+0 0  9997
2 39188   0.0362 355.0774 0002987 201.5694 163.3474  5.00115726187962
O3B FM4                 
1 39189U 13031B   23283.27023092 -.00000027  00000+0  00000+0 0  9999
2 39189   0.0597  12.9706 0002976 184.9408 162.0822  5.00116202187976
O3B FM2                 
1 39190U 13031C   23284.36165550 -.00000024  00000+0  00000+0 0  9995
2 39190   0.0640  15.5221 0002783 182.3124 162.1604  5.00115420188084
O3B PFM                 
1 39191U 13031D   23284.38745615 -.00000024  00000+0  00000+0 0  9994
2 39191   0.0440   1.3192 0002553 198.0101 160.6657  5.00116048188108
O3B FM3                 
1 40079U 14038A   23283.44237053 -.00000026  00000+0  00000+0 0  9999
2 40079   0.0525  10.2339 0000314 234.1789 115.5882  5.00116766163983
O3B FM7                 
1 40080U 14038B   23283.58890965 -.00000026  00000+0  00000+0 0  9993
2 40080   0.0537  14.7243 0004367 176.3704 168.8999  5.00115936168823
O3B FM6                 
1 40081U 14038C   23283.41569365 -.00000026  00000+0  00000+0 0  9993
2 40081   0.0535   9.8169 0002617 187.1360 163.0425  5.00115277168760
O3B FM8                 
1 40082U 14038D   23283.46922793 -.00000026  00000+0  00000+0 0  9997
2 40082   0.0536  10.8702 0002604 190.5585 158.5647  5.00115301168886
O3B FM10                
1 40348U 14083A   23282.89604489 -.00000028  00000+0  00000+0 0  9999
2 40348   0.0492   1.0405 0002605 196.9485 162.0056  5.00115380160809
O3B FM11                
1 40349U 14083B   23283.10922903 -.00000027  00000+0  00000+0 0  9998
2 40349   0.0456   4.8249 0003121 183.3396 171.8345  5.00115584160830
O3B FM12                
1 40350U 14083C   23283.13651064 -.00000027  00000+0  00000+0 0  9990
2 40350   0.0465   4.9249 0002617 189.1863 165.8854  5.00115517160840
O3B FM9                 
1 40351U 14083D   23283.56277546 -.00000026  00000+0  00000+0 0  9996
2 40351   0.0445   5.5490 0002680 192.1112 162.3347  5.00115098161018
DIAMOND RED             
1 42783U 17036U   23283.86241151  .00057108  00000+0  10642-2 0  9992
2 42783  97.1394 316.5496 0007562  55.7280 304.4687 15.48612741350649
DIAMOND GREEN           
1 42785U 17036W   23283.88366487  .00070556  00000+0  12176-2 0  9992
2 42785  97.1371 317.0069 0007135  57.5924 302.6018 15.50749976350742
DIAMOND BLUE            
1 42786U 17036X   23284.08975219  .00060435  00000+0  10938-2 0  9994
2 42786  97.1390 317.0425 0007334  53.2670 306.9254 15.49436463350686
LEO VANTAGE 1           
1 43113U 18004C   23283.88575072  .00011883  00000+0  90981-3 0  9995
2 43113  99.2707  61.7425 0387384 184.5239 175.2418 14.57664151294124
O3B FM15                
1 43231U 18024A   23283.22909140 -.00000027  00000+0  00000+0 0  9991
2 43231   0.0516 358.3121 0002659 196.2547 165.4296  5.00114575101953
O3B FM16                
1 43232U 18024B   23283.28215137 -.00000027  00000+0  00000+0 0  9994
2 43232   0.0540 354.4856 0002711 200.4421 165.0684  5.00116292101877
O3B FM14                
1 43233U 18024C   23283.72199807 -.00000026  00000+0  00000+0 0  9998
2 43233   0.0553 353.7423 0002904 201.5372 164.7161  5.00115788101904
O3B FM13                
1 43234U 18024D   23283.57580095 -.00000026  00000+0  00000+0 0  9995
2 43234   0.0441  15.6139 0002361 166.9153 177.4738  5.00115641102019
O3B FM20                
1 44112U 19020A   23283.74867869 -.00000026  00000+0  00000+0 0  9994
2 44112   0.0497   1.4522 0002783 186.5749 171.9728  5.00115812 82512
O3B FM19                
1 44113U 19020B   23283.77568980 -.00000026  00000+0  00000+0 0  9990
2 44113   0.0288  11.4810 0004196 186.0173 162.4915  5.00115600 82392
O3B FM17                
1 44114U 19020C   23283.45603710 -.00000026  00000+0  00000+0 0  9997
2 44114   0.0694   1.7535 0002634 192.2039 166.0395  5.00116070 82467
O3B FM18                
1 44115U 19020D   23284.40192454 -.00000024  00000+0  00000+0 0  9990
2 44115   0.0493   1.4118 0002688 197.6302 160.9528  5.00116083 82623
SALSAT                  
1 46495U 20068K   23284.41619758  .00010341  00000+0  65472-3 0  9999
2 46495  97.7809 233.8094 0016966  85.4814 274.8352 15.09052783166595
O3B MPOWER F1           
1 54755U 22174A   23284.40266024 -.00000024  00000+0  00000+0 0  9990
2 54755   0.0497  18.5697 0005091 196.6493   7.2178  5.00118447 16324
O3B MPOWER F2           
1 54756U 22174B   23284.39055816 -.00000024  00000+0  00000+0 0  9994
2 54756   0.0521  18.8287 0007312 229.2286 111.8698  5.00113685 16410
O3B MPOWER F4           
1 56367U 23059A   23283.11225729 -.00000027  00000+0  00000+0 0  9991
2 56367   0.0378   2.2664 0006527 210.0425 147.6550  5.00115121  9521
O3B MPOWER F3           
1 56368U 23059B   23284.41170849 -.00000024  00000+0  00000+0 0  9995
2 56368   0.0372 359.3055 0003013 232.3288 128.3434  5.00114896  9735
